COMMENT,ORIGINATOR,NORAD_CAT_ID,OBJECT_NAME,OBJECT_TYPE,CLASSIFICATION_TYPE,INTLDES,EPOCH,EPOCH_MICROSECONDS,MEAN_MOTION,ECCENTRICITY,INCLINATION,RA_OF_ASC_NODE,ARG_OF_PERICENTER,MEAN_ANOMALY,EPHEMERIS_TYPE,ELEMENT_SET_NO,REV_AT_EPOCH,BSTAR,MEAN_MOTION_DOT,MEAN_MOTION_DDOT,FILE,TLE_LINE0,TLE_LINE1,TLE_LINE2,OBJECT_ID,OBJECT_NUMBER,SEMIMAJOR_AXIS,PERIOD,APOGEE,PERIGEE,DECAYED,date
GENERATED VIA SPACETRACK.ORG API,18 SPCS,48893,SPACEBEE-106,PAYLOAD,U,21059Q,2023/3/13 16:22,697344,15.24764081,0.0008373,97.5826,207.925,248.4017,111.6329,0,999,9480,0.0014921,0.00037083,0,3859631,0 SPACEBEE-106,1 48893U 21059Q   23072.68202196  .00037083  00000-0  14921-2 0  9997,2 48893  97.5826 207.9250 0008373 248.4017 111.6329 15.24764081 94805,2021-059Q,48893,6869.631,94.441,497.248,485.744,0,
GENERATED VIA SPACETRACK.ORG API,18 SPCS,48893,SPACEBEE-106,PAYLOAD,U,21059Q,2023/3/14 8:07,511584,15.24815346,0.000844,97.5824,208.5892,245.8265,114.209,0,999,9490,0.0016096,0.00040087,0,3860373,0 SPACEBEE-106,1 48893U 21059Q   23073.33826981  .00040087  00000-0  16096-2 0  9997,2 48893  97.5824 208.5892 0008440 245.8265 114.2090 15.24815346 94909,2021-059Q,48893,6869.477,94.438,497.14,485.544,0,
GENERATED VIA SPACETRACK.ORG API,18 SPCS,48893,SPACEBEE-106,PAYLOAD,U,21059Q,2023/3/14 15:59,697696,15.24843342,0.0008444,97.5823,208.9215,244.7946,115.2416,0,999,9495,0.0017523,0.00043705,0,3860477,0 SPACEBEE-106,1 48893U 21059Q   23073.66638539  .00043705  00000-0  17523-2 0  9999,2 48893  97.5823 208.9215 0008444 244.7946 115.2416 15.24843342 94954,2021-059Q,48893,6869.393,94.436,497.058,485.457,0,
GENERATED VIA SPACETRACK.ORG API,18 SPCS,48893,SPACEBEE-106,PAYLOAD,U,21059Q,2023/3/14 15:59,697696,15.24843342,0.0008444,97.5823,208.9215,244.7946,115.2416,0,999,9495,0.0017523,0.00043705,0,3860643,0 SPACEBEE-106,1 48893U 21059Q   23073.66638539  .00043705  00000-0  17523-2 0  9999,2 48893  97.5823 208.9215 0008444 244.7946 115.2416 15.24843342 94954,2021-059Q,48893,6869.393,94.436,497.058,485.457,0,
GENERATED VIA SPACETRACK.ORG API,18 SPCS,48893,SPACEBEE-106,PAYLOAD,U,21059Q,2023/3/15 7:44,277120,15.24907176,0.0008434,97.5819,209.5863,242.5692,117.4688,0,999,9505,0.001891,0.00047283,0,3861350,0 SPACEBEE-106,1 48893U 21059Q   23074.32259580  .00047283  00000-0  18910-2 0  9994,2 48893  97.5819 209.5863 0008434 242.5692 117.4688 15.24907176 95051,2021-059Q,48893,6869.201,94.432,496.86,485.273,0,
GENERATED VIA SPACETRACK.ORG API,18 SPCS,48893,SPACEBEE-106,PAYLOAD,U,21059Q,2023/3/15 20:20,843072,15.24955423,0.0008423,97.5822,210.1176,240.458,119.5818,0,999,9513,0.0017187,0.00043005,0,3861457,0 SPACEBEE-106,1 48893U 21059Q   23074.84754448  .00043005  00000-0  17187-2 0  9997,2 48893  97.5822 210.1176 0008423 240.4580 119.5818 15.24955423 95136,2021-059Q,48893,6869.056,94.429,496.707,485.135,0,
GENERATED VIA SPACETRACK.ORG API,18 SPCS,48893,SPACEBEE-106,PAYLOAD,U,21059Q,2023/3/15 21:54,219264,15.24959313,0.00084,97.5821,210.1842,240.2779,119.7623,0,999,9514,0.0016436,0.00041117,0,3861599,0 SPACEBEE-106,1 48893U 21059Q   23074.91316226  .00041117  00000-0  16436-2 0  9991,2 48893  97.5821 210.1842 0008400 240.2779 119.7623 15.24959313 95147,2021-059Q,48893,6869.045,94.429,496.68,485.14,0,
GENERATED VIA SPACETRACK.ORG API,18 SPCS,48893,SPACEBEE-106,PAYLOAD,U,21059Q,2023/3/16 8:56,946272,15.25009135,0.0008329,97.582,210.6497,239.0087,121.0332,0,999,9521,0.0019321,0.00048466,0,3862295,0 SPACEBEE-106,1 48893U 21059Q   23075.37247623  .00048466  00000-0  19321-2 0  9996,2 48893  97.5820 210.6497 0008329 239.0087 121.0332 15.25009135 95215,2021-059Q,48893,6868.895,94.426,496.481,485.039,0,
GENERATED VIA SPACETRACK.ORG API,18 SPCS,48893,SPACEBEE-106,PAYLOAD,U,21059Q,2023/3/16 19:57,830880,15.2503516,0.0008349,97.5825,211.1147,237.5711,122.4719,0,999,9528,0.0013239,0.00033144,0,3862592,0 SPACEBEE-106,1 48893U 21059Q   23075.83178045  .00033144  00000-0  13239-2 0  9997,2 48893  97.5825 211.1147 0008349 237.5711 122.4719 15.25035160 95285,2021-059Q,48893,6868.817,94.424,496.417,484.947,0,
GENERATED VIA SPACETRACK.ORG API,18 SPCS,48893,SPACEBEE-106,PAYLOAD,U,21059Q,2023/3/17 2:15,967072,15.25052815,0.000837,97.5824,211.3807,236.6623,123.3813,0,999,9532,0.0013688,0.00034294,0,3862734,0 SPACEBEE-106,1 48893U 21059Q   23076.09423573  .00034294  00000-0  13688-2 0  9990,2 48893  97.5824 211.3807 0008370 236.6623 123.3813 15.25052815 95321,2021-059Q,48893,6868.764,94.423,496.378,484.88,0,
GENERATED VIA SPACETRACK.ORG API,18 SPCS,48893,SPACEBEE-106,PAYLOAD,U,21059Q,2023/3/17 8:33,831968,15.25069337,0.0008391,97.5825,211.6466,235.7892,124.2551,0,999,9536,0.001258,0.00031516,0,3863278,0 SPACEBEE-106,1 48893U 21059Q   23076.35668787  .00031516  00000-0  12580-2 0  9991,2 48893  97.5825 211.6466 0008391 235.7892 124.2551 15.25069337 95367,2021-059Q,48893,6868.714,94.422,496.343,484.816,0,
GENERATED VIA SPACETRACK.ORG API,18 SPCS,48893,SPACEBEE-106,PAYLOAD,U,21059Q,2023/3/17 21:09,759968,15.2510736,0.0008411,97.5824,212.1784,234.0364,126.0094,0,999,9544,0.0013305,0.00033383,0,3863544,0 SPACEBEE-106,1 48893U 21059Q   23076.88158287  .00033383  00000-0  13305-2 0  9998,2 48893  97.5824 212.1784 0008411 234.0364 126.0094 15.25107360 95444,2021-059Q,48893,6868.6,94.42,496.242,484.688,0,
GENERATED VIA SPACETRACK.ORG API,18 SPCS,48893,SPACEBEE-106,PAYLOAD,U,21059Q,2023/3/18 6:36,318336,15.25132299,0.0008432,97.5824,212.5772,232.8585,127.1883,0,999,9550,0.0013394,0.00033633,0,3863993,0 SPACEBEE-106,1 48893U 21059Q   23077.27524674  .00033633  00000-0  13394-2 0  9995,2 48893  97.5824 212.5772 0008432 232.8585 127.1883 15.25132299 95503,2021-059Q,48893,6868.525,94.418,496.182,484.599,0,
GENERATED VIA SPACETRACK.ORG API,18 SPCS,48893,SPACEBEE-106,PAYLOAD,U,21059Q,2023/3/18 20:46,21024,15.25170995,0.0008478,97.5826,213.1756,230.9259,129.1225,0,999,9559,0.001252,0.00031461,0,3864479,0 SPACEBEE-106,1 48893U 21059Q   23077.86572941  .00031461  00000-0  12520-2 0  9997,2 48893  97.5826 213.1756 0008478 230.9259 129.1225 15.25170995 95597,2021-059Q,48893,6868.409,94.416,496.097,484.451,0,
GENERATED VIA SPACETRACK.ORG API,18 SPCS,48893,SPACEBEE-106,PAYLOAD,U,21059Q,2023/3/19 7:47,503552,15.25203623,0.0008488,97.5826,213.641,229.377,130.673,0,999,9566,0.0013136,0.00033052,0,3864882,0 SPACEBEE-106,1 48893U 21059Q   23078.32498268  .00033052  00000-0  13136-2 0  9990,2 48893  97.5826 213.6410 0008488 229.3770 130.6730 15.25203623 95661,2021-059Q,48893,6868.311,94.414,496.006,484.346,0,
GENERATED VIA SPACETRACK.ORG API,18 SPCS,48893,SPACEBEE-106,PAYLOAD,U,21059Q,2023/3/19 14:05,102176,15.25224638,0.0008469,97.583,213.9069,228.4752,131.5759,0,999,9570,0.0014389,0.0003625,0,3865049,0 SPACEBEE-106,1 48893U 21059Q   23078.58740859  .00036250  00000-0  14389-2 0  9998,2 48893  97.5830 213.9069 0008469 228.4752 131.5759 15.25224638 95703,2021-059Q,48893,6868.248,94.412,495.93,484.296,0,
GENERATED VIA SPACETRACK.ORG API,18 SPCS,48893,SPACEBEE-106,PAYLOAD,U,21059Q,2023/3/20 8:59,208064,15.25282186,0.0008432,97.5834,214.7044,225.4284,134.6266,0,999,9582,0.0014192,0.00035812,0,3865740,0 SPACEBEE-106,1 48893U 21059Q   23079.37466676  .00035812  00000-0  14192-2 0  9993,2 48893  97.5834 214.7044 0008432 225.4284 134.6266 15.25282186 95828,2021-059Q,48893,6868.075,94.409,495.731,484.149,0,
GENERATED VIA SPACETRACK.ORG API,18 SPCS,48893,SPACEBEE-106,PAYLOAD,U,21059Q,2023/3/20 8:59,208064,15.25282186,0.0008432,97.5834,214.7044,225.4284,134.6266,0,999,9582,0.0014192,0.00035812,0,3865912,0 SPACEBEE-106,1 48893U 21059Q   23079.37466676  .00035812  00000-0  14192-2 0  9993,2 48893  97.5834 214.7044 0008432 225.4284 134.6266 15.25282186 95828,2021-059Q,48893,6868.075,94.409,495.731,484.149,0,
GENERATED VIA SPACETRACK.ORG API,18 SPCS,48893,SPACEBEE-106,PAYLOAD,U,21059Q,2023/3/21 8:36,403520,15.25357371,0.0008419,97.5838,215.7018,222.063,137.9962,0,999,9597,0.0014909,0.00037719,0,3866730,0 SPACEBEE-106,1 48893U 21059Q   23080.35869680  .00037719  00000-0  14909-2 0  9999,2 48893  97.5838 215.7018 0008419 222.0630 137.9962 15.25357371 95971,2021-059Q,48893,6867.85,94.404,495.497,483.932,0,
GENERATED VIA SPACETRACK.ORG API,18 SPCS,48893,SPACEBEE-106,PAYLOAD,U,21059Q,2023/3/21 19:37,79616,15.25390493,0.0008427,97.5841,216.1673,220.7464,139.3144,0,999,9604,0.0013881,0.00035136,0,3866816,0 SPACEBEE-106,1 48893U 21059Q   23080.81789444  .00035136  00000-0  13881-2 0  9998,2 48893  97.5841 216.1673 0008427 220.7464 139.3144 15.25390493 96045,2021-059Q,48893,6867.75,94.402,495.403,483.828,0,
GENERATED VIA SPACETRACK.ORG API,18 SPCS,48893,SPACEBEE-106,PAYLOAD,U,21059Q,2023/3/21 19:37,79616,15.25390493,0.0008427,97.5841,216.1673,220.7464,139.3144,0,999,9604,0.0013881,0.00035136,0,3866953,0 SPACEBEE-106,1 48893U 21059Q   23080.81789444  .00035136  00000-0  13881-2 0  9998,2 48893  97.5841 216.1673 0008427 220.7464 139.3144 15.25390493 96045,2021-059Q,48893,6867.75,94.402,495.403,483.828,0,
GENERATED VIA SPACETRACK.ORG API,18 SPCS,48893,SPACEBEE-106,PAYLOAD,U,21059Q,2023/3/22 20:49,574592,15.25474053,0.0008504,97.5843,217.2311,217.6343,142.43,0,999,9620,0.0015258,0.00038745,0,3868201,0 SPACEBEE-106,1 48893U 21059Q   23081.86744878  .00038745  00000-0  15258-2 0  9995,2 48893  97.5843 217.2311 0008504 217.6343 142.4300 15.25474053 96207,2021-059Q,48893,6867.499,94.397,495.204,483.524,0,
GENERATED VIA SPACETRACK.ORG API,18 SPCS,48893,SPACEBEE-106,PAYLOAD,U,21059Q,2023/3/22 22:23,736,15.25478874,0.0008504,97.5843,217.2976,217.411,142.6537,0,999,9621,0.0015096,0.00038337,0,3868064,0 SPACEBEE-106,1 48893U 21059Q   23081.93304399  .00038337  00000-0  15096-2 0  9990,2 48893  97.5843 217.2976 0008504 217.4110 142.6537 15.25478874 96214,2021-059Q,48893,6867.485,94.397,495.19,483.51,0,
